ONEWEB-0683             
1 56719U 23068K   24141.14412666  .00000025  00000+0  33321-4 0  9991
2 56719  87.9061  50.0278 0001950  69.6293 290.5047 13.15549229 50455
ONEWEB-0684             
1 56720U 23068L   24141.15205495 -.00000054  00000+0 -17853-3 0  9999
2 56720  87.9059  50.1023 0003240  99.0085 261.1412 13.15548699 50284
ONEWEB-0686             
1 56721U 23068M   24141.17400232 -.00000099  00000+0 -29153-3 0  9993
2 56721  87.9128  19.7207 0001972  80.5253 279.6100 13.16595886 52673
ONEWEB-0694             
1 56722U 23068N   24140.59983311  .00000044  00000+0  81897-4 0  9995
2 56722  87.9129  19.7533 0001904  66.6465 293.4866 13.16007548 51958
ONEWEB-0696             
1 56723U 23068P   24140.80504044  .00000143  00000+0  34474-3 0  9990
2 56723  87.9058  50.1459 0001870  88.7572 271.3773 13.15546358 50353
ONEWEB-0703             
1 56724U 23068Q   24140.28214278  .00000239  00000+0  60000-3 0  9990
2 56724  87.9058  50.2707 0001931 119.2707 240.8616 13.15547260 49470
ONEWEB-0721             
1 56725U 23068R   24140.54683983  .00004625  00000+0  53874-3 0  9997
2 56725  86.6777 348.0656 0011518  25.4832 334.6957 14.85009760 54264
